{
    "links": {
        "self": "http://www.neowsapp.com/rest/v1/neo/3761146?api_key=iIulBulltgU6a56xZRHN4H3l9WmuAYTsLGpBGhQ2"
    },
    "id": "3761146",
    "neo_reference_id": "3761146",
    "name": "(2016 UD)",
    "designation": "2016 UD",
    "nasa_jpl_url": "http://ssd.jpl.nasa.gov/sbdb.cgi?sstr=3761146",
    "absolute_magnitude_h": 26.6,
    "estimated_diameter": {
        "kilometers": {
            "estimated_diameter_min": 0.0127219879,
            "estimated_diameter_max": 0.0284472297
        },
        "meters": {
            "estimated_diameter_min": 12.7219878539,
            "estimated_diameter_max": 28.4472296503
        },
        "miles": {
            "estimated_diameter_min": 0.0079050743,
            "estimated_diameter_max": 0.0176762835
        },
        "feet": {
            "estimated_diameter_min": 41.7388066307,
            "estimated_diameter_max": 93.330808926
        }
    },
    "is_potentially_hazardous_asteroid": false,
    "close_approach_data": [
        {
            "close_approach_date": "2014-10-18",
            "close_approach_date_full": "2014-Oct-18 10:33",
            "epoch_date_close_approach": 1413628380000,
            "relative_velocity": {
                "kilometers_per_second": "22.9941789221",
                "kilometers_per_hour": "82779.0441195978",
                "miles_per_hour": "51435.678830869"
            },
            "miss_distance": {
                "astronomical": "0.0018671203",
                "lunar": "0.7263097967",
                "kilometers": "279317.219913761",
                "miles": "173559.6723854618"
            },
            "orbiting_body": "Moon"
        },
        {
            "close_approach_date": "2014-10-18",
            "close_approach_date_full": "2014-Oct-18 13:18",
            "epoch_date_close_approach": 1413638280000,
            "relative_velocity": {
                "kilometers_per_second": "22.4028205878",
                "kilometers_per_hour": "80650.1541160076",
                "miles_per_hour": "50112.8693728049"
            },
            "miss_distance": {
                "astronomical": "0.000438408",
                "lunar": "0.170540712",
                "kilometers": "65584.90299096",
                "miles": "40752.568996848"
            },
            "orbiting_body": "Earth"
        },
        {
            "close_approach_date": "2016-10-17",
            "close_approach_date_full": "2016-Oct-17 23:32",
            "epoch_date_close_approach": 1476747120000,
            "relative_velocity": {
                "kilometers_per_second": "22.3640685545",
                "kilometers_per_hour": "80510.6467963688",
                "miles_per_hour": "50026.184949666"
            },
            "miss_distance": {
                "astronomical": "0.000484881",
                "lunar": "0.188618709",
                "kilometers": "72537.16480347",
                "miles": "45072.504169086"
            },
            "orbiting_body": "Earth"
        },
        {
            "close_approach_date": "2016-10-18",
            "close_approach_date_full": "2016-Oct-18 02:57",
            "epoch_date_close_approach": 1476759420000,
            "relative_velocity": {
                "kilometers_per_second": "22.7983204544",
                "kilometers_per_hour": "82073.9536359487",
                "miles_per_hour": "50997.5630245149"
            },
            "miss_distance": {
                "astronomical": "0.0010695889",
                "lunar": "0.4160700821",
                "kilometers": "160008.221215643",
                "miles": "99424.4982881534"
            },
            "orbiting_body": "Moon"
        },
        {
            "close_approach_date": "2018-06-27",
            "close_approach_date_full": "2018-Jun-27 05:32",
            "epoch_date_close_approach": 1530077520000,
            "relative_velocity": {
                "kilometers_per_second": "26.2559695824",
                "kilometers_per_hour": "94521.4904964931",
                "miles_per_hour": "58731.9783587793"
            },
            "miss_distance": {
                "astronomical": "0.1037031027",
                "lunar": "40.3405069503",
                "kilometers": "15513763.276311249",
                "miles": "9639805.4961792762"
            },
            "orbiting_body": "Venus"
        }
    ],
    "orbital_data": {
        "orbit_id": "2",
        "orbit_determination_date": "2017-04-06 08:22:56",
        "first_observation_date": "2016-10-19",
        "last_observation_date": "2016-10-20",
        "data_arc_in_days": 1,
        "observations_used": 24,
        "orbit_uncertainty": "8",
        "minimum_orbit_intersection": ".000372011",
        "jupiter_tisserand_invariant": "4.185",
        "epoch_osculation": "2457681.5",
        "eccentricity": ".6652600032510333",
        "semi_major_axis": "1.536280482536446",
        "inclination": "10.25737418317312",
        "ascending_node_longitude": "24.92709451397624",
        "orbital_period": "695.5113099559779",
        "perihelion_distance": ".5142545237297511",
        "perihelion_argument": "257.6863292092665",
        "aphelion_distance": "2.558306441343142",
        "perihelion_time": "2457629.735295704193",
        "mean_anomaly": "26.79365997322176",
        "mean_motion": ".5176048108014031",
        "equinox": "J2000",
        "orbit_class": {
            "orbit_class_type": "APO",
            "orbit_class_description": "Near-Earth asteroid orbits which cross the Earth’s orbit similar to that of 1862 Apollo",
            "orbit_class_range": "a (semi-major axis) > 1.0 AU; q (perihelion) < 1.017 AU"
        }
    },
    "is_sentry_object": false
}